OBJECT_NAME,OBJECT_ID,EPOCH,MEAN_MOTION,ECCENTRICITY,INCLINATION,RA_OF_ASC_NODE,ARG_OF_PERICENTER,MEAN_ANOMALY,EPHEMERIS_TYPE,CLASSIFICATION_TYPE,NORAD_CAT_ID,ELEMENT_SET_NO,REV_AT_EPOCH,BSTAR,MEAN_MOTION_DOT,MEAN_MOTION_DDOT
ASTRA 1M,2008-057A,2026-07-05T13:56:02.557824,1.00272601,.0004928,0.3407,82.7222,35.4217,33.8237,0,U,33436,999,4592,0,.134E-5,0
EUTELSAT HOTBIRD 13C,2008-065A,2026-07-05T09:57:19.475136,1.00269506,.00033,2.9939,78.9827,27.6435,275.7970,0,U,33459,999,4752,0,-.271E-5,0
EXPRESS-AM44,2009-007A,2026-07-05T13:47:18.395808,1.00271767,.00041849,3.5080,78.1765,18.2660,22.9414,0,U,33595,999,5247,0,-.77E-6,0
NSS-9,2009-008A,2026-07-05T13:56:47.061600,1.00272944,.00021863,1.3062,82.4905,16.1112,217.2479,0,U,33749,999,6370,0,.85E-6,0
TELSTAR 11N,2009-009A,2026-07-05T11:57:06.705792,1.00271653,.0002537,0.0185,69.8590,34.1082,321.2564,0,U,34111,999,4642,0,-.237E-5,0
WGS F2 (USA 204),2009-017A,2026-07-02T17:40:37.432704,1.00270260,.00005037,0.0187,20.0082,139.1091,84.3284,0,U,34713,999,4577,0,.79E-6,0
MEASAT-3A,2009-032A,2026-07-05T12:35:27.455712,1.00271277,.0003027,0.0210,358.6645,99.1012,174.6262,0,U,35362,999,821,0,-.97E-6,0
GOES 14,2009-033A,2026-07-05T12:45:11.167200,1.00103643,.0002101,1.7341,82.8289,31.1570,131.8513,0,U,35491,999,677,0,-.332E-5,0
FM-5,2009-034A,2026-07-02T18:42:12.903264,1.00271535,.00009637,0.0343,275.0250,71.7322,128.4433,0,U,35493,999,4680,0,-.189E-5,0
TERRESTAR-1,2009-035A,2026-07-05T13:28:31.294848,1.00272557,.000264,5.1897,48.7854,48.3151,277.5746,0,U,35496,999,6231,0,-.45E-6,0
ASIASAT 5,2009-042A,2026-07-05T07:28:21.561024,1.00270693,.000158,0.0364,76.8436,7.6209,51.4433,0,U,35696,999,6189,0,-.294E-5,0
JCSAT-12 (JCSAT-RA),2009-044A,2026-07-05T14:28:09.926688,1.00270247,.00009496,0.0223,303.2723,249.7385,79.6604,0,U,35755,999,6179,0,-.314E-5,0
OPTUS D3,2009-044B,2026-07-02T18:08:46.110336,1.00273454,.00035194,0.8834,268.4529,194.0205,246.6503,0,U,35756,999,6172,0,-.134E-5,0
NIMIQ 5,2009-050A,2026-07-05T13:29:42.581760,1.00271871,.00028837,0.0117,308.3605,155.2091,309.7180,0,U,35873,999,6152,0,-.243E-5,0
AMAZONAS 2,2009-054A,2026-07-05T13:29:57.559200,1.00273816,.00034135,1.8600,82.8259,20.9002,310.3117,0,U,35942,999,6136,0,-.246E-5,0
COMSATBW-1,2009-054B,2026-07-05T12:25:48.955008,1.00272949,.0002984,0.0726,118.9744,350.1447,63.8742,0,U,35943,999,6149,0,.38E-6,0
NSS-12,2009-058A,2026-07-05T14:06:46.528992,1.00272796,.00045354,0.0570,277.8296,153.3099,121.1372,0,U,36032,999,6110,0,.85E-6,0
THOR 6,2009-058B,2026-07-05T06:59:37.220064,1.00271442,.0002147,0.0161,103.5183,24.1150,259.7122,0,U,36033,999,6118,0,.3E-7,0
INTELSAT 14 (IS-14),2009-064A,2026-07-05T11:54:59.410080,1.00272233,.0002507,0.0102,319.6479,147.1238,310.4796,0,U,36097,999,6078,0,-.26E-5,0
EUTELSAT 36B,2009-065A,2026-07-05T14:04:54.208128,1.00270497,.00059821,0.5343,81.2891,23.3661,80.6368,0,U,36101,999,6089,0,.126E-5,0
INTELSAT 15 (IS-15),2009-067A,2026-07-05T10:49:29.055072,1.00271724,.000231,0.0052,51.6530,60.0662,59.2529,0,U,36106,999,4141,0,-.172E-5,0
WGS F3 (USA 211),2009-068A,2026-07-02T11:33:38.649312,1.00272327,.0000791,0.3096,85.7176,41.4348,196.7936,0,U,36108,999,4674,0,.74E-6,0
DIRECTV 12,2009-075A,2026-07-02T15:12:13.817664,1.00269592,.00002931,0.0418,186.0830,277.3252,302.5946,0,U,36131,999,4670,0,-.92E-6,0
BEIDOU-2 G1,2010-001A,2026-07-05T14:30:32.199840,1.00270067,.00018809,4.3340,60.3453,307.7105,273.6468,0,U,36287,999,6035,0,-.268E-5,0
SDO,2010-005A,2026-07-05T07:07:04.691712,1.00270023,.0001556,34.6862,86.0692,54.3097,147.4053,0,U,36395,999,6024,0,-.72E-6,0
INTELSAT 16 (IS-16),2010-006A,2026-07-05T13:28:42.678048,1.00271270,.00024122,0.0110,41.4612,82.9208,285.1570,0,U,36397,999,5983,0,-.231E-5,0
EWS-G2 (GOES 15),2010-008A,2026-07-05T12:25:56.443296,1.00268286,.00053505,1.3248,82.5972,48.9751,41.8629,0,U,36411,999,5982,0,.34E-6,0
ECHOSTAR 14,2010-010A,2026-07-05T13:32:17.318112,1.00271427,.00020532,0.0566,260.7785,193.3065,273.6383,0,U,36499,999,4673,0,.14E-6,0
SES-1,2010-016A,2026-07-05T13:23:19.580928,1.00271312,.0002733,0.0384,287.4818,173.3546,282.5494,0,U,36516,999,5921,0,-.101E-5,0
ASTRA 3B,2010-021A,2026-07-05T13:57:09.949824,1.00272584,.0004248,1.5162,83.3320,17.2439,55.7692,0,U,36581,999,5905,0,.15E-5,0
COMSATBW-2,2010-021B,2026-07-05T13:54:10.236960,1.00271129,.00025174,0.0417,153.4030,324.4595,27.4599,0,U,36582,999,5914,0,.102E-5,0
