ASTRA 1M                
1 33436U 08057A   26186.58058516  .00000134  00000+0  00000+0 0  9996
2 33436   0.3407  82.7222 0004928  35.4217  33.8237  1.00272601 45928
EUTELSAT HOTBIRD 13C    
1 33459U 08065A   26186.41480874 -.00000271  00000+0  00000+0 0  9991
2 33459   2.9939  78.9827 0003299  27.6435 275.7970  1.00269506 47523
EXPRESS-AM44            
1 33595U 09007A   26186.57451847 -.00000077  00000+0  00000+0 0  9998
2 33595   3.5080  78.1765 0004184  18.2660  22.9414  1.00271767 52478
NSS-9                   
1 33749U 09008A   26186.58110025  .00000085  00000+0  00000+0 0  9999
2 33749   1.3062  82.4905 0002186  16.1112 217.2479  1.00272944 63704
TELSTAR 11N             
1 34111U 09009A   26186.49799429 -.00000237  00000+0  00000+0 0  9995
2 34111   0.0185  69.8590 0002536  34.1082 321.2564  1.00271653 46421
WGS F2 (USA 204)        
1 34713U 09017A   26183.73654436  .00000079  00000+0  00000+0 0  9997
2 34713   0.0187  20.0082 0000503 139.1091  84.3284  1.00270260 45770
MEASAT-3A               
1 35362U 09032A   26186.52462334 -.00000097  00000+0  00000+0 0  9990
2 35362   0.0210 358.6645 0003027  99.1012 174.6262  1.00271277  8211
GOES 14                 
1 35491U 09033A   26186.53137925 -.00000332  00000+0  00000+0 0  9992
2 35491   1.7341  82.8289 0002100  31.1570 131.8513  1.00103643  6777
FM-5                    
1 35493U 09034A   26183.77931601 -.00000189  00000+0  00000+0 0  9991
2 35493   0.0343 275.0250 0000963  71.7322 128.4433  1.00271535 46804
TERRESTAR-1             
1 35496U 09035A   26186.56147333 -.00000045  00000+0  00000+0 0  9997
2 35496   5.1897  48.7854 0002640  48.3151 277.5746  1.00272557 62318
ASIASAT 5               
1 35696U 09042A   26186.31136066 -.00000294  00000+0  00000+0 0  9997
2 35696   0.0364  76.8436 0001580   7.6209  51.4433  1.00270693 61898
JCSAT-12 (JCSAT-RA)     
1 35755U 09044A   26186.60289267 -.00000314  00000+0  00000+0 0  9992
2 35755   0.0223 303.2723 0000949 249.7385  79.6604  1.00270247 61792
OPTUS D3                
1 35756U 09044B   26183.75608924 -.00000134  00000+0  00000+0 0  9991
2 35756   0.8834 268.4529 0003519 194.0205 246.6503  1.00273454 61724
NIMIQ 5                 
1 35873U 09050A   26186.56229840 -.00000243  00000+0  00000+0 0  9997
2 35873   0.0117 308.3605 0002883 155.2091 309.7180  1.00271871 61525
AMAZONAS 2              
1 35942U 09054A   26186.56247175 -.00000246  00000+0  00000+0 0  9992
2 35942   1.8600  82.8259 0003413  20.9002 310.3117  1.00273816 61368
COMSATBW-1              
1 35943U 09054B   26186.51792772  .00000038  00000+0  00000+0 0  9994
2 35943   0.0726 118.9744 0002984 350.1447  63.8742  1.00272949 61496
NSS-12                  
1 36032U 09058A   26186.58803853  .00000085  00000+0  00000+0 0  9990
2 36032   0.0570 277.8296 0004535 153.3099 121.1372  1.00272796 61105
THOR 6                  
1 36033U 09058B   26186.29140302  .00000003  00000+0  00000+0 0  9992
2 36033   0.0161 103.5183 0002147  24.1150 259.7122  1.00271442 61188
INTELSAT 14 (IS-14)     
1 36097U 09064A   26186.49652096 -.00000260  00000+0  00000+0 0  9995
2 36097   0.0102 319.6479 0002506 147.1238 310.4796  1.00272233 60789
EUTELSAT 36B            
1 36101U 09065A   26186.58673852  .00000126  00000+0  00000+0 0  9995
2 36101   0.5343  81.2891 0005982  23.3661  80.6368  1.00270497 60896
INTELSAT 15 (IS-15)     
1 36106U 09067A   26186.45103073 -.00000172  00000+0  00000+0 0  9993
2 36106   0.0052  51.6530 0002309  60.0662  59.2529  1.00271724 41415
WGS F3 (USA 211)        
1 36108U 09068A   26183.48169733  .00000074  00000+0  00000+0 0  9991
2 36108   0.3096  85.7176 0000791  41.4348 196.7936  1.00272327 46749
DIRECTV 12              
1 36131U 09075A   26183.63349326 -.00000092  00000+0  00000+0 0  9991
2 36131   0.0418 186.0830 0000293 277.3252 302.5946  1.00269592 46707
BEIDOU-2 G1             
1 36287U 10001A   26186.60453935 -.00000268  00000+0  00000+0 0  9991
2 36287   4.3340  60.3453 0001880 307.7105 273.6468  1.00270067 60356
SDO                     
1 36395U 10005A   26186.29658209 -.00000072  00000+0  00000+0 0  9994
2 36395  34.6862  86.0692 0001555  54.3097 147.4053  1.00270023 60243
INTELSAT 16 (IS-16)     
1 36397U 10006A   26186.56160507 -.00000231  00000+0  00000+0 0  9993
2 36397   0.0110  41.4612 0002412  82.9208 285.1570  1.00271270 59831
EWS-G2 (GOES 15)        
1 36411U 10008A   26186.51801439  .00000034  00000+0  00000+0 0  9993
2 36411   1.3248  82.5972 0005350  48.9751  41.8629  1.00268286 59822
ECHOSTAR 14             
1 36499U 10010A   26186.56408933  .00000014  00000+0  00000+0 0  9997
2 36499   0.0566 260.7785 0002053 193.3065 273.6383  1.00271427 46738
SES-1                   
1 36516U 10016A   26186.55786553 -.00000101  00000+0  00000+0 0  9997
2 36516   0.0384 287.4818 0002732 173.3546 282.5494  1.00271312 59217
ASTRA 3B                
1 36581U 10021A   26186.58136516  .00000150  00000+0  00000+0 0  9999
2 36581   1.5162  83.3320 0004248  17.2439  55.7692  1.00272584 59055
COMSATBW-2              
1 36582U 10021B   26186.57928515  .00000102  00000+0  00000+0 0  9994
2 36582   0.0417 153.4030 0002517 324.4595  27.4599  1.00271129 59149
